NORAD_CAT_ID,OBJECT_NAME,OBJECT_TYPE,EPOCH,MEAN_MOTION,ECCENTRICITY,INCLINATION,RA_OF_ASC_NODE,ARG_OF_PERICENTER,MEAN_ANOMALY,BSTAR,MEAN_MOTION_DOT,MEAN_MOTION_DDOT,TLE_LINE0,TLE_LINE1,TLE_LINE2,SEMIMAJOR_AXIS,PERIOD,APOGEE,PERIGEE,DECAYED
56790.0,STARLINK-6345,PAYLOAD,2023-06-22 00:44:32,15.69929578,0.0003848,70.0008,352.1396,274.498,85.5776,9.3084e-05,0.00010998,0.0,0 STARLINK-6345,1 56790U 23078Z   23173.03093678  .00010998  00000-0  93084-4 0  9994,2 56790  70.0008 352.1396 0003848 274.4980  85.5776 15.69929578  3721,6737.235,91.724,361.693,356.508,0.0
56790.0,STARLINK-6345,PAYLOAD,2023-06-22 05:19:48,15.69949318,0.0003887,70.0006,351.6021,273.9709,86.1042,0.00027364,0.00032857,0.0,0 STARLINK-6345,1 56790U 23078Z   23173.22208506  .00032857  00000-0  27364-3 0  9998,2 56790  70.0006 351.6021 0003887 273.9709  86.1042 15.69949318  3754,6737.179,91.723,361.663,356.425,0.0
56790.0,STARLINK-6345,PAYLOAD,2023-06-22 14:30:18,15.69935363,0.0004271,70.0005,350.527,273.0889,86.9818,0.00039649,0.00047764,0.0,0 STARLINK-6345,1 56790U 23078Z   23173.60438547  .00047764  00000-0  39649-3 0  9992,2 56790  70.0005 350.5270 0004271 273.0889  86.9818 15.69935363  3816,6737.219,91.724,361.961,356.206,0.0
56790.0,STARLINK-6345,PAYLOAD,2023-06-23 14:58:21,15.69893495,0.0004628,70.0009,347.6612,287.5933,72.4757,-0.0001376,-0.0001671,0.0,0 STARLINK-6345,1 56790U 23078Z   23174.62385583 -.00016710  00000-0 -13760-3 0  9991,2 56790  70.0009 347.6612 0004628 287.5933  72.4757 15.69893495  3971,6737.339,91.726,362.322,356.086,0.0
56790.0,STARLINK-6345,PAYLOAD,2023-06-23 21:05:21,15.69923734,0.000375,70.0009,346.9441,276.3475,83.7293,0.00017815,0.00021264,0.0,0 STARLINK-6345,1 56790U 23078Z   23174.87872473  .00021264  00000-0  17815-3 0  9990,2 56790  70.0009 346.9441 0003750 276.3475  83.7293 15.69923734  4011,6737.252,91.724,361.644,356.591,0.0
56790.0,STARLINK-6345,PAYLOAD,2023-06-24 20:01:38,15.69933083,0.000358,69.9998,344.2572,266.2809,93.7978,0.00010785,0.0001278,0.0,0 STARLINK-6345,1 56790U 23078Z   23175.83447294  .00012780  00000-0  10785-3 0  9998,2 56790  69.9998 344.2572 0003580 266.2809  93.7978 15.69933083  4166,6737.225,91.724,361.502,356.679,0.0
56790.0,STARLINK-6345,PAYLOAD,2023-06-25 05:12:09,15.69934172,0.0003331,69.9992,343.1823,264.2007,95.8809,8.0603e-05,9.494e-05,0.0,0 STARLINK-6345,1 56790U 23078Z   23176.21677316  .00009494  00000-0  80603-4 0  9996,2 56790  69.9992 343.1823 0003331 264.2007  95.8809 15.69934172  4222,6737.222,91.724,361.332,356.843,0.0
56790.0,STARLINK-6345,PAYLOAD,2023-06-25 20:29:40,15.69932046,0.0003575,69.9996,341.3914,270.1241,89.9545,4.8886e-05,5.671e-05,0.0,0 STARLINK-6345,1 56790U 23078Z   23176.85393905  .00005671  00000-0  48886-4 0  9995,2 56790  69.9996 341.3914 0003575 270.1241  89.9545 15.69932046  4323,6737.228,91.724,361.502,356.685,0.0
56790.0,STARLINK-6345,PAYLOAD,2023-06-26 05:40:11,15.6991871,0.0003614,69.9992,340.3146,273.6405,86.4377,-1.3555e-05,-1.842e-05,0.0,0 STARLINK-6345,1 56790U 23078Z   23177.23624179 -.00001842  00000-0 -13555-4 0  9991,2 56790  69.9992 340.3146 0003614 273.6405  86.4377 15.69918710  4382,6737.267,91.724,361.566,356.697,0.0
56790.0,STARLINK-6345,PAYLOAD,2023-06-26 20:57:42,15.69932584,0.0003711,69.9981,338.5228,275.5781,84.4992,-8.1284e-06,-1.191e-05,0.0,0 STARLINK-6345,1 56790U 23078Z   23177.87340487 -.00001191  00000-0 -81284-5 0  9990,2 56790  69.9981 338.5228 0003711 275.5781  84.4992 15.69932584  4483,6737.227,91.724,361.592,356.592,0.0
56790.0,STARLINK-6345,PAYLOAD,2023-06-27 18:22:14,15.6992698,0.0003796,69.9981,336.0166,274.3182,85.758,1.8968e-06,1.5e-07,0.0,0 STARLINK-6345,1 56790U 23078Z   23178.76544079  .00000015  00000-0  18968-5 0  9993,2 56790  69.9981 336.0166 0003796 274.3182  85.7580 15.69926980  4628,6737.243,91.724,361.665,356.55,0.0
56790.0,STARLINK-6345,PAYLOAD,2023-06-28 14:15:01,15.69923388,0.0003636,69.9966,333.6857,272.1986,87.8793,1.245e-05,1.284e-05,0.0,0 STARLINK-6345,1 56790U 23078Z   23179.59376218  .00001284  00000-0  12450-4 0  9991,2 56790  69.9966 333.6857 0003636 272.1986  87.8793 15.69923388  4754,6737.253,91.724,361.568,356.669,0.0
56790.0,STARLINK-6345,PAYLOAD,2023-06-29 10:07:48,15.69913639,0.0003556,69.9964,331.356,267.7375,92.3413,1.166e-05,1.189e-05,0.0,0 STARLINK-6345,1 56790U 23078Z   23180.42208428  .00001189  00000-0  11660-4 0  9998,2 56790  69.9964 331.3560 0003556 267.7375  92.3413 15.69913639  4883,6737.281,91.725,361.542,356.75,0.0
56790.0,STARLINK-6345,PAYLOAD,2023-06-29 19:18:18,15.69923435,0.0003144,69.9971,330.2803,279.5487,80.5353,2.8284e-05,3.189e-05,0.0,0 STARLINK-6345,1 56790U 23078Z   23180.80437845  .00003189  00000-0  28284-4 0  9999,2 56790  69.9971 330.2803 0003144 279.5487  80.5353 15.69923435  4941,6737.253,91.724,361.236,357.0,0.0
56790.0,STARLINK-6345,PAYLOAD,2023-06-30 16:42:50,15.69917637,0.0003864,69.996,327.7754,270.1121,89.9632,-7.3422e-06,-1.096e-05,0.0,0 STARLINK-6345,1 56790U 23078Z   23181.69642126 -.00001096  00000-0 -73422-5 0  9999,2 56790  69.9960 327.7754 0003864 270.1121  89.9632 15.69917637  5082,6737.27,91.725,361.738,356.531,0.0
56790.0,STARLINK-6345,PAYLOAD,2023-06-30 19:46:20,15.69926919,0.0003853,69.9962,327.4164,269.7594,90.316,3.3407e-06,1.89e-06,0.0,0 STARLINK-6345,1 56790U 23078Z   23181.82384641  .00000189  00000-0  33407-5 0  9998,2 56790  69.9962 327.4164 0003853 269.7594  90.3160 15.69926919  5100,6737.243,91.724,361.704,356.512,0.0
56790.0,STARLINK-6345,PAYLOAD,2023-07-02 02:21:22,15.69929272,0.0003844,69.9962,323.8332,270.1784,89.8971,-8.3715e-06,-1.22e-05,0.0,0 STARLINK-6345,1 56790U 23078Z   23183.09818039 -.00001220  00000-0 -83715-5 0  9998,2 56790  69.9962 323.8332 0003844 270.1784  89.8971 15.69929272  5304,6737.236,91.724,361.691,356.512,0.0
56790.0,STARLINK-6345,PAYLOAD,2023-07-02 10:00:08,15.69918472,0.000384,69.9961,322.9374,268.2601,91.8155,1.4748e-05,1.56e-05,0.0,0 STARLINK-6345,1 56790U 23078Z   23183.41676758  .00001560  00000-0  14748-4 0  9998,2 56790  69.9961 322.9374 0003840 268.2601  91.8155 15.69918472  5353,6737.267,91.725,361.719,356.545,0.0
56790.0,STARLINK-6345,PAYLOAD,2023-07-02 16:07:08,15.69924853,0.0003825,69.9962,322.2209,268.7606,91.3152,2.2954e-05,2.548e-05,0.0,0 STARLINK-6345,1 56790U 23078Z   23183.67162933  .00002548  00000-0  22954-4 0  9996,2 56790  69.9962 322.2209 0003825 268.7606  91.3152 15.69924853  5393,6737.249,91.724,361.691,356.537,0.0
56790.0,STARLINK-6345,PAYLOAD,2023-07-03 16:35:11,15.69925411,0.000348,69.9964,319.3537,267.4598,92.6199,1.0169e-05,1.01e-05,0.0,0 STARLINK-6345,1 56790U 23078Z   23184.69110028  .00001010  00000-0  10169-4 0  9995,2 56790  69.9964 319.3537 0003480 267.4598  92.6199 15.69925411  5553,6737.247,91.724,361.457,356.768,0.0
56790.0,STARLINK-6345,PAYLOAD,2023-07-04 17:03:12,15.69933336,0.0003747,69.9959,316.4875,269.7213,90.3553,1.0186e-05,1.012e-05,0.0,0 STARLINK-6345,1 56790U 23078Z   23185.71056228  .00001012  00000-0  10186-4 0  9991,2 56790  69.9959 316.4875 0003747 269.7213  90.3553 15.69933336  5717,6737.225,91.724,361.614,356.565,0.0
56790.0,STARLINK-6345,PAYLOAD,2023-07-04 18:34:59,15.69913172,0.0003698,69.9962,316.3085,272.1164,87.9608,-1.2284e-05,-1.689e-05,0.0,0 STARLINK-6345,1 56790U 23078Z   23185.77429559 -.00001689  00000-0 -12284-4 0  9991,2 56790  69.9962 316.3085 0003698 272.1164  87.9608 15.69913172  5721,6737.282,91.725,361.639,356.656,0.0
56790.0,STARLINK-6345,PAYLOAD,2023-07-05 02:13:44,15.6991799,0.0003592,69.9957,315.412,271.8492,88.2292,7.8653e-06,7.33e-06,0.0,0 STARLINK-6345,1 56790U 23078Z   23186.09287353  .00000733  00000-0  78653-5 0  9991,2 56790  69.9957 315.4120 0003592 271.8492  88.2292 15.69917990  5778,6737.269,91.725,361.554,356.714,0.0
56790.0,STARLINK-6345,PAYLOAD,2023-07-05 11:24:14,15.69925904,0.0003585,69.9956,314.3366,271.573,88.5055,7.9559e-06,7.44e-06,0.0,0 STARLINK-6345,1 56790U 23078Z   23186.47516974  .00000744  00000-0  79559-5 0  9995,2 56790  69.9956 314.3366 0003585 271.5730  88.5055 15.69925904  5832,6737.246,91.724,361.526,356.696,0.0
56790.0,STARLINK-6345,PAYLOAD,2023-07-06 17:59:15,15.69952035,0.0003578,69.9963,310.7553,273.0854,86.9932,-1.6408e-05,-2.188e-05,0.0,0 STARLINK-6345,1 56790U 23078Z   23187.74948923 -.00002188  00000-0 -16408-4 0  9998,2 56790  69.9963 310.7553 0003578 273.0854  86.9932 15.69952035  6038,6737.171,91.723,361.447,356.626,0.0
56790.0,STARLINK-6345,PAYLOAD,2023-07-07 01:38:03,15.69913442,0.0003399,69.996,309.8576,277.2937,82.7872,1.157e-05,1.178e-05,0.0,0 STARLINK-6345,1 56790U 23078Z   23188.06809636  .00001178  00000-0  11570-4 0  9992,2 56790  69.9960 309.8576 0003399 277.2937  82.7872 15.69913442  6089,6737.282,91.725,361.437,356.857,0.0
56790.0,STARLINK-6345,PAYLOAD,2023-07-07 10:48:33,15.6992267,0.0003682,69.9972,308.7846,278.3531,81.7247,8.4114e-06,7.98e-06,0.0,0 STARLINK-6345,1 56790U 23078Z   23188.45039229  .00000798  00000-0  84114-5 0  9990,2 56790  69.9972 308.7846 0003682 278.3531  81.7247 15.69922670  6142,6737.255,91.724,361.601,356.64,0.0
56790.0,STARLINK-6345,PAYLOAD,2023-07-08 17:23:36,15.69925482,0.0003628,69.9978,305.1989,270.2935,89.7845,8.4727e-06,8.06e-06,0.0,0 STARLINK-6345,1 56790U 23078Z   23189.72472332  .00000806  00000-0  84727-5 0  9997,2 56790  69.9978 305.1989 0003628 270.2935  89.7845 15.69925482  6344,6737.247,91.724,361.556,356.668,0.0
56790.0,STARLINK-6345,PAYLOAD,2023-07-10 09:09:09,15.69923347,0.0003829,69.9972,300.5411,268.4402,91.6355,1.6056e-05,1.718e-05,0.0,0 STARLINK-6345,1 56790U 23078Z   23191.38135908  .00001718  00000-0  16056-4 0  9999,2 56790  69.9972 300.5411 0003829 268.4402  91.6355 15.69923347  6603,6737.253,91.724,361.698,356.539,0.0
56790.0,STARLINK-6345,PAYLOAD,2023-07-11 06:33:40,15.69937196,0.0003714,69.9957,298.0331,266.5549,93.5222,-3.5448e-05,-4.476e-05,0.0,0 STARLINK-6345,1 56790U 23078Z   23192.27338586 -.00004476  00000-0 -35448-4 0  9997,2 56790  69.9957 298.0331 0003714 266.5549  93.5222 15.69937196  6748,6737.214,91.723,361.581,356.576,0.0
